O3B FM10                
1 40348U 14083A   26116.98737137 -.00000027  00000+0  00000+0 0  9994
2 40348   0.0386 337.9177 0002658  58.1762 323.9226  5.00115300207332
O3B FM11                
1 40349U 14083B   26117.00005587 -.00000027  00000+0  00000+0 0  9996
2 40349   0.0578 359.2663 0002915  22.9299 337.8151  5.00115571207345
O3B FM12                
1 40350U 14083C   26116.82722182 -.00000027  00000+0  00000+0 0  9994
2 40350   0.0570 358.9586 0002542  33.4206 327.6349  5.00115897207358
O3B FM9                 
1 40351U 14083D   26116.85405310 -.00000027  00000+0  00000+0 0  9999
2 40351   0.0590 359.0813 0002707  36.2174 324.7178  5.00115935207502
ASTRA 2G                
1 40364U 14089A   26117.21155843  .00000140  00000+0  00000+0 0  9998
2 40364   0.0574  31.8876 0004801  13.0830 274.5736  1.00271544 41458
SES-9                   
1 41380U 16013A   26117.01461461 -.00000356  00000+0  00000+0 0  9990
2 41380   0.0160 282.7094 0002190 137.1942 268.6545  1.00272708 36929
SES-10                  
1 42432U 17017A   26116.98933904 -.00000284  00000+0  00000+0 0  9995
2 42432   0.0295  22.1693 0002924  27.9632  94.1211  1.00272084 33246
SES-15                  
1 42709U 17026A   26117.24781884  .00000050  00000+0  00000+0 0  9990
2 42709   0.0244 328.8560 0000651  43.7721 162.6676  1.00270096  6928
SES-11 (ECHOSTAR 105)   
1 42967U 17063A   26117.27828244  .00000000  00000+0  00000+0 0  9997
2 42967   0.0205  65.2292 0003003 358.9053 146.3617  1.00269709 31211
SES-14                  
1 43175U 18012B   26117.05500142 -.00000289  00000+0  00000+0 0  9994
2 43175   0.0409  44.9058 0000976 345.9798 156.4724  1.00270027  6512
O3B FM15                
1 43231U 18024A   26116.92083771 -.00000027  00000+0  00000+0 0  9999
2 43231   0.0510   4.1670 0002636  29.7949 326.0536  5.00115706148469
O3B FM16                
1 43232U 18024B   26116.77329822 -.00000027  00000+0  00000+0 0  9993
2 43232   0.0487   8.2697 0002681  24.1687 327.5766  5.00115962148370
O3B FM14                
1 43233U 18024C   26116.01451709 -.00000027  00000+0  00000+0 0  9991
2 43233   0.0471   8.2311 0002860  27.6841 324.1024  5.00115703148346
O3B FM13                
1 43234U 18024D   26116.08037929 -.00000027  00000+0  00000+0 0  9993
2 43234   0.0556 328.9915 0003580  21.8257   9.1746  5.00115553148456
SES-12                  
1 43488U 18049A   26117.20233531  .00000000  00000+0  00000+0 0  9993
2 43488   0.0151  63.1819 0001174 246.1967  73.6621  1.00267712 28902
O3B FM20                
1 44112U 19020A   26116.84011893 -.00000027  00000+0  00000+0 0  9992
2 44112   0.0532   1.3271 0002586  24.3542 334.3301  5.00115510129006
O3B FM19                
1 44113U 19020B   26111.67003593 -.00000022  00000+0  00000+0 0  9992
2 44113   0.0716 348.2754 0003491  26.5306 345.2041  5.00115966128611
